{
  "type": "FeatureCollection",
  "features": [
    {
      "type": "Feature",
      "properties": {
        "norad_id": 34434,
        "name": "COSMOS 2251 DEB",
        "group": "cosmos-2251-debris",
        "lat": 19.193439816928034,
        "lon": 17.446483710362624,
        "alt_km": 1052.8952277929984,
        "timestamp": "2025-12-11T18:59:46.469694+00:00",
        "meta_object_name": "COSMOS 2251 DEB",
        "meta_object_id": "1993-036SB",
        "meta_epoch": "2025-12-11T05:38:59.952768",
        "meta_mean_motion": 13.89792176,
        "meta_eccentricity": 0.02753241,
        "meta_inclination": 74.0628,
        "meta_ra_of_asc_node": 12.6834,
        "meta_arg_of_pericenter": 150.366,
        "meta_mean_anomaly": 330.9981,
        "meta_ephemeris_type": 0,
        "meta_classification_type": "U",
        "meta_norad_cat_id": 34434,
        "meta_element_set_no": 999,
        "meta_rev_at_epoch": 83945,
        "meta_bstar": 0.0028871754,
        "meta_mean_motion_dot": 4.793e-05,
        "meta_mean_motion_ddot": 0,
        "tle_line1": "1 34434U 93036SB  25345.23541612  .00004793  00000+0  28872-2 0  9993",
        "tle_line2": "2 34434  74.0628  12.6834 0275324 150.3660 330.9981 13.89792176839450"
      },
      "geometry": {
        "type": "Point",
        "coordinates": [
          17.446483710362624,
          19.193439816928034
        ]
      }
    },
    {
      "type": "Feature",
      "properties": {
        "norad_id": 34446,
        "name": "COSMOS 2251 DEB",
        "group": "cosmos-2251-debris",
        "lat": 5.708946038911411,
        "lon": 60.69943634188319,
        "alt_km": 765.3180628070413,
        "timestamp": "2025-12-11T18:59:46.469704+00:00",
        "meta_object_name": "COSMOS 2251 DEB",
        "meta_object_id": "1993-036SP",
        "meta_epoch": "2025-12-11T07:22:20.954208",
        "meta_mean_motion": 14.49350894,
        "meta_eccentricity": 0.00512241,
        "meta_inclination": 74.0423,
        "meta_ra_of_asc_node": 59.9681,
        "meta_arg_of_pericenter": 198.3289,
        "meta_mean_anomaly": 161.6028,
        "meta_ephemeris_type": 0,
        "meta_classification_type": "U",
        "meta_norad_cat_id": 34446,
        "meta_element_set_no": 999,
        "meta_rev_at_epoch": 88673,
        "meta_bstar": 0.0002443455,
        "meta_mean_motion_dot": 9.21e-06,
        "meta_mean_motion_ddot": 0,
        "tle_line1": "1 34446U 93036SP  25345.30718697  .00000921  00000+0  24435-3 0  9994",
        "tle_line2": "2 34446  74.0423  59.9681 0051224 198.3289 161.6028 14.49350894886738"
      },
      "geometry": {
        "type": "Point",
        "coordinates": [
          60.69943634188319,
          5.708946038911411
        ]
      }
    },
    {
      "type": "Feature",
      "properties": {
        "norad_id": 34449,
        "name": "COSMOS 2251 DEB",
        "group": "cosmos-2251-debris",
        "lat": -2.3639362405365283,
        "lon": 71.79509230019694,
        "alt_km": 593.4944520799227,
        "timestamp": "2025-12-11T18:59:46.469714+00:00",
        "meta_object_name": "COSMOS 2251 DEB",
        "meta_object_id": "1993-036SS",
        "meta_epoch": "2025-12-11T06:27:22.771584",
        "meta_mean_motion": 14.94750358,
        "meta_eccentricity": 0.00232911,
        "meta_inclination": 74.0335,
        "meta_ra_of_asc_node": 73.5253,
        "meta_arg_of_pericenter": 116.8352,
        "meta_mean_anomaly": 310.582,
        "meta_ephemeris_type": 0,
        "meta_classification_type": "U",
        "meta_norad_cat_id": 34449,
        "meta_element_set_no": 999,
        "meta_rev_at_epoch": 88671,
        "meta_bstar": 0.0059881858,
        "meta_mean_motion_dot": 0.00066006,
        "meta_mean_motion_ddot": 0,
        "tle_line1": "1 34449U 93036SS  25345.26901356  .00066006  00000+0  59882-2 0  9997",
        "tle_line2": "2 34449  74.0335  73.5253 0023291 116.8352 310.5820 14.94750358886711"
      },
      "geometry": {
        "type": "Point",
        "coordinates": [
          71.79509230019694,
          -2.3639362405365283
        ]
      }
    },
    {
      "type": "Feature",
      "properties": {
        "norad_id": 34451,
        "name": "COSMOS 2251 DEB",
        "group": "cosmos-2251-debris",
        "lat": -32.32502140230732,
        "lon": 79.35367643204138,
        "alt_km": 600.4165116478189,
        "timestamp": "2025-12-11T18:59:46.469725+00:00",
        "meta_object_name": "COSMOS 2251 DEB",
        "meta_object_id": "1993-036SU",
        "meta_epoch": "2025-12-10T23:52:50.325024",
        "meta_mean_motion": 14.95397018,
        "meta_eccentricity": 0.00243255,
        "meta_inclination": 74.0463,
        "meta_ra_of_asc_node": 91.3883,
        "meta_arg_of_pericenter": 112.4587,
        "meta_mean_anomaly": 247.9177,
        "meta_ephemeris_type": 0,
        "meta_classification_type": "U",
        "meta_norad_cat_id": 34451,
        "meta_element_set_no": 999,
        "meta_rev_at_epoch": 88609,
        "meta_bstar": 0.0043173471,
        "meta_mean_motion_dot": 0.00048272,
        "meta_mean_motion_ddot": 0,
        "tle_line1": "1 34451U 93036SU  25344.99502691  .00048272  00000+0  43173-2 0  9999",
        "tle_line2": "2 34451  74.0463  91.3883 0024325 112.4587 247.9177 14.95397018886094"
      },
      "geometry": {
        "type": "Point",
        "coordinates": [
          79.35367643204138,
          -32.32502140230732
        ]
      }
    },
    {
      "type": "Feature",
      "properties": {
        "norad_id": 34452,
        "name": "COSMOS 2251 DEB",
        "group": "cosmos-2251-debris",
        "lat": 2.196810580576718,
        "lon": -174.58758666234655,
        "alt_km": 542.2013714173954,
        "timestamp": "2025-12-11T18:59:46.469735+00:00",
        "meta_object_name": "COSMOS 2251 DEB",
        "meta_object_id": "1993-036SV",
        "meta_epoch": "2025-12-10T18:08:14.898336",
        "meta_mean_motion": 15.11594209,
        "meta_eccentricity": 0.00665805,
        "meta_inclination": 74.036,
        "meta_ra_of_asc_node": 186.9257,
        "meta_arg_of_pericenter": 263.7008,
        "meta_mean_anomaly": 223.8479,
        "meta_ephemeris_type": 0,
        "meta_classification_type": "U",
        "meta_norad_cat_id": 34452,
        "meta_element_set_no": 999,
        "meta_rev_at_epoch": 90632,
        "meta_bstar": 0.0011226666,
        "meta_mean_motion_dot": 0.00020124,
        "meta_mean_motion_ddot": 0,
        "tle_line1": "1 34452U 93036SV  25344.75572799  .00020124  00000+0  11227-2 0  9991",
        "tle_line2": "2 34452  74.0360 186.9257 0066580 263.7008 223.8479 15.11594209906321"
      },
      "geometry": {
        "type": "Point",
        "coordinates": [
          -174.58758666234655,
          2.196810580576718
        ]
      }
    },
    {
      "type": "Feature",
      "properties": {
        "norad_id": 34453,
        "name": "COSMOS 2251 DEB",
        "group": "cosmos-2251-debris",
        "lat": -2.341502179349402,
        "lon": 100.69507379152546,
        "alt_km": 303.480734886155,
        "timestamp": "2025-12-11T18:59:46.469746+00:00",
        "meta_object_name": "COSMOS 2251 DEB",
        "meta_object_id": "1993-036SW",
        "meta_epoch": "2025-12-11T03:50:27.512160",
        "meta_mean_motion": 15.80930872,
        "meta_eccentricity": 0.00226188,
        "meta_inclination": 74.1052,
        "meta_ra_of_asc_node": 102.8112,
        "meta_arg_of_pericenter": 345.3894,
        "meta_mean_anomaly": 14.6678,
        "meta_ephemeris_type": 0,
        "meta_classification_type": "U",
        "meta_norad_cat_id": 34453,
        "meta_element_set_no": 999,
        "meta_rev_at_epoch": 88842,
        "meta_bstar": 0.017398144,
        "meta_mean_motion_dot": 0.04045787,
        "meta_mean_motion_ddot": 0,
        "tle_line1": "1 34453U 93036SW  25345.16004065  .04045787  00000+0  17398-1 0  9994",
        "tle_line2": "2 34453  74.1052 102.8112 0022618 345.3894  14.6678 15.80930872888425"
      },
      "geometry": {
        "type": "Point",
        "coordinates": [
          100.69507379152546,
          -2.341502179349402
        ]
      }
    },
    {
      "type": "Feature",
      "properties": {
        "norad_id": 34454,
        "name": "COSMOS 2251 DEB",
        "group": "cosmos-2251-debris",
        "lat": -69.02182333746435,
        "lon": -128.81276288556555,
        "alt_km": 755.9340400607534,
        "timestamp": "2025-12-11T18:59:46.469756+00:00",
        "meta_object_name": "COSMOS 2251 DEB",
        "meta_object_id": "1993-036SX",
        "meta_epoch": "2025-12-11T05:59:52.372608",
        "meta_mean_motion": 14.38805375,
        "meta_eccentricity": 0.00355429,
        "meta_inclination": 74.0588,
        "meta_ra_of_asc_node": 280.3808,
        "meta_arg_of_pericenter": 343.2018,
        "meta_mean_anomaly": 16.7956,
        "meta_ephemeris_type": 0,
        "meta_classification_type": "U",
        "meta_norad_cat_id": 34454,
        "meta_element_set_no": 999,
        "meta_rev_at_epoch": 88046,
        "meta_bstar": 0.00045636145,
        "meta_mean_motion_dot": 1.387e-05,
        "meta_mean_motion_ddot": 0,
        "tle_line1": "1 34454U 93036SX  25345.24991172  .00001387  00000+0  45636-3 0  9990",
        "tle_line2": "2 34454  74.0588 280.3808 0035542 343.2018  16.7956 14.38805375880467"
      },
      "geometry": {
        "type": "Point",
        "coordinates": [
          -128.81276288556555,
          -69.02182333746435
        ]
      }
    }
  ]
}